NORAD_CAT_ID,OBJECT_NAME,OBJECT_TYPE,EPOCH,MEAN_MOTION,ECCENTRICITY,INCLINATION,RA_OF_ASC_NODE,ARG_OF_PERICENTER,MEAN_ANOMALY,BSTAR,MEAN_MOTION_DOT,MEAN_MOTION_DDOT,TLE_LINE0,TLE_LINE1,TLE_LINE2,SEMIMAJOR_AXIS,PERIOD,APOGEE,PERIGEE,DECAYED
49739.0,STARLINK-3155,PAYLOAD,2022-09-14 14:02:36,15.08832613,0.0001291999999999,53.2188,109.8135,58.1347,301.9771,8.3686e-05,1.044e-05,0.0,0 STARLINK-3155,1 49739U 21115R   22257.58514394  .00001044  00000-0  83686-4 0  9993,2 49739  53.2188 109.8135 0001292  58.1347 301.9771 15.08832613 43349,6917.903,95.438,540.6619999999998,538.874,0.0
49739.0,STARLINK-3155,PAYLOAD,2022-09-15 07:31:50,15.08852869,0.0001676999999999,53.2179,106.5429,57.534,302.5814,-2.853e-05,-7.42e-06,0.0,0 STARLINK-3155,1 49739U 21115R   22258.31377582 -.00000742  00000-0 -28530-4 0  9994,2 49739  53.2179 106.5429 0001677  57.5340 302.5814 15.08852869 43454,6917.840999999999,95.437,540.866,538.5459999999998,0.0
49739.0,STARLINK-3155,PAYLOAD,2022-09-15 20:14:54,15.0887366,0.0001493,53.2176,104.1638,62.4382,297.6762,-0.00033372,-5.600000000000001e-05,0.0,0 STARLINK-3155,1 49739U 21115R   22258.84368925 -.00005600  00000-0 -33372-3 0  9990,2 49739  53.2176 104.1638 0001493  62.4382 297.6762 15.08873660 43531,6917.778,95.435,540.675,538.61,0.0
49739.0,STARLINK-3155,PAYLOAD,2022-09-16 01:01:04,15.08843443,0.0001671,53.2178,103.2718,61.4914,298.6246,9.9923e-05,1.303e-05,0.0,0 STARLINK-3155,1 49739U 21115R   22259.04241738  .00001303  00000-0  99923-4 0  9994,2 49739  53.2178 103.2718 0001671  61.4914 298.6246 15.08843443 44670,6917.87,95.437,540.891,538.5790000000002,0.0
49739.0,STARLINK-3155,PAYLOAD,2022-09-16 07:22:37,15.08842005,0.0001720999999999,53.2177,102.0834,58.5283,301.5878,7.9809e-05,9.82e-06,0.0,0 STARLINK-3155,1 49739U 21115R   22259.30737875  .00000982  00000-0  79809-4 0  9998,2 49739  53.2177 102.0834 0001721  58.5283 301.5878 15.08842005 43607,6917.874,95.437,540.93,538.549,0.0
49739.0,STARLINK-3155,PAYLOAD,2022-09-16 16:54:56,15.08843129,0.0002106,53.2161,100.2996,71.7192,288.403,-2.7671e-05,-7.29e-06,0.0,0 STARLINK-3155,1 49739U 21115R   22259.70482149 -.00000729  00000-0 -27671-4 0  9994,2 49739  53.2161 100.2996 0002106  71.7192 288.4030 15.08843129 44773,6917.871,95.437,541.193,538.279,0.0
49739.0,STARLINK-3155,PAYLOAD,2022-09-17 19:56:30,15.08835133,0.0001465,53.218,95.2427,65.3609,294.7536,-5.6729e-05,-1.191e-05,0.0,0 STARLINK-3155,1 49739U 21115R   22260.83091124 -.00001191  00000-0 -56729-4 0  9999,2 49739  53.2180  95.2427 0001465  65.3609 294.7536 15.08835133 43838,6917.895,95.438,540.774,538.747,0.0
49739.0,STARLINK-3155,PAYLOAD,2022-09-18 13:25:44,15.08837848,0.0001418,53.2183,91.9714,66.3907,293.7234,4.3726e-05,4.08e-06,0.0,0 STARLINK-3155,1 49739U 21115R   22261.55954797  .00000408  00000-0  43726-4 0  9994,2 49739  53.2183  91.9714 0001418  66.3907 293.7234 15.08837848 43944,6917.887,95.438,540.7330000000002,538.771,0.0
49739.0,STARLINK-3155,PAYLOAD,2022-09-18 19:47:17,15.0883508,0.000149,53.2181,90.782,62.6257,297.4887,0.00018075,2.589e-05,0.0,0 STARLINK-3155,1 49739U 21115R   22261.82450668  .00002589  00000-0  18075-3 0  9992,2 49739  53.2181  90.7820 0001490  62.6257 297.4887 15.08835080 45093,6917.895,95.438,540.7909999999998,538.73,0.0
49739.0,STARLINK-3155,PAYLOAD,2022-09-19 11:41:08,15.08841427,0.0001503,53.2182,87.8083,62.7978,297.3167,0.00012262,1.664e-05,0.0,0 STARLINK-3155,1 49739U 21115R   22262.48690679  .00001664  00000-0  12262-3 0  9998,2 49739  53.2182  87.8083 0001503  62.7978 297.3167 15.08841427 44088,6917.876,95.437,540.781,538.701,0.0
49739.0,STARLINK-3155,PAYLOAD,2022-09-19 14:51:55,15.08837613,0.0001478,53.2179,87.213,59.9457,300.1681,7.9555e-05,9.78e-06,0.0,0 STARLINK-3155,1 49739U 21115R   22262.61939077  .00000978  00000-0  79555-4 0  9997,2 49739  53.2179  87.2130 0001478  59.9457 300.1681 15.08837613 44101,6917.888000000001,95.438,540.775,538.73,0.0
49739.0,STARLINK-3155,PAYLOAD,2022-09-20 11:31:56,15.088359900000002,0.0001353,53.218,83.34700000000002,63.7475,296.3657,0.00016341,2.313e-05,0.0,0 STARLINK-3155,1 49739U 21115R   22263.48051012  .00002313  00000-0  16341-3 0  9995,2 49739  53.2180  83.3470 0001353  63.7475 296.3657 15.08835990 44231,6917.893,95.438,540.694,538.822,0.0
49739.0,STARLINK-3155,PAYLOAD,2022-09-21 17:44:15,15.08844383,0.0001468,53.2185,77.6966,61.524,298.59,5.9895e-05,6.65e-06,0.0,0 STARLINK-3155,1 49739U 21115R   22264.73906371  .00000665  00000-0  59895-4 0  9991,2 49739  53.2185  77.6966 0001468  61.5240 298.5900 15.08844383 44427,6917.8669999999975,95.437,540.748,538.716,0.0
49739.0,STARLINK-3155,PAYLOAD,2022-09-22 17:35:03,15.08832962,0.0001564,53.219,73.237,69.0902,291.0257,-1.6547999999999998e-05,-5.51e-06,0.0,0 STARLINK-3155,1 49739U 21115R   22265.73267487 -.00000551  00000-0 -16548-4 0  9994,2 49739  53.2190  73.2370 0001564  69.0902 291.0257 15.08832962 45681,6917.901999999999,95.438,540.849,538.685,0.0
49739.0,STARLINK-3155,PAYLOAD,2022-09-23 17:25:49,15.08846789,0.0001538,53.219,68.7773,63.5746,296.5403,7.8642e-05,9.64e-06,0.0,0 STARLINK-3155,1 49739U 21115R   22266.72626369  .00000964  00000-0  78642-4 0  9991,2 49739  53.2190  68.7773 0001538  63.5746 296.5403 15.08846789 45835,6917.86,95.437,540.789,538.661,0.0
49739.0,STARLINK-3155,PAYLOAD,2022-09-24 17:16:36,15.08844362,0.0001515,53.2192,64.3177,58.9162,301.1978,7.3432e-05,8.81e-06,0.0,0 STARLINK-3155,1 49739U 21115R   22267.71986439  .00000881  00000-0  73432-4 0  9998,2 49739  53.2192  64.3177 0001515  58.9162 301.1978 15.08844362 44870,6917.8669999999975,95.437,540.78,538.684,0.0
49739.0,STARLINK-3155,PAYLOAD,2022-09-24 22:02:45,15.08844706,0.0001515,53.2188,63.4256,57.4972,302.6166,7.4065e-05,8.91e-06,0.0,0 STARLINK-3155,1 49739U 21115R   22267.91858371  .00000891  00000-0  74065-4 0  9997,2 49739  53.2188  63.4256 0001515  57.4972 302.6166 15.08844706 44907,6917.866,95.437,540.779,538.683,0.0
49739.0,STARLINK-3155,PAYLOAD,2022-09-25 17:07:23,15.08841335,0.0001516,53.2193,59.8565,59.0465,301.0676,-3.2123000000000004e-05,-7.99e-06,0.0,0 STARLINK-3155,1 49739U 21115R   22268.71346762 -.00000799  00000-0 -32123-4 0  9990,2 49739  53.2193  59.8565 0001516  59.0465 301.0676 15.08841335 45029,6917.876,95.437,540.79,538.693,0.0
49739.0,STARLINK-3155,PAYLOAD,2022-09-26 02:39:42,15.08844543,0.000153,53.2194,58.072,60.0759,300.0385,6.575799999999999e-07,-2.78e-06,0.0,0 STARLINK-3155,1 49739U 21115R   22269.11090340 -.00000278  00000-0  65758-6 0  9996,2 49739  53.2194  58.0720 0001530  60.0759 300.0385 15.08844543 46197,6917.8669999999975,95.437,540.79,538.673,0.0
49739.0,STARLINK-3155,PAYLOAD,2022-09-28 03:56:41,15.08828287,0.0001648,53.2193,48.8551,59.6987,300.4168,-6.3059e-05,-1.291e-05,0.0,0 STARLINK-3155,1 49739U 21115R   22271.16436479 -.00001291  00000-0 -63059-4 0  9998,2 49739  53.2193  48.8551 0001648  59.6987 300.4168 15.08828287 46507,6917.916,95.438,540.9209999999998,538.641,0.0
49739.0,STARLINK-3155,PAYLOAD,2022-09-28 13:28:59,15.08830815,0.0001506999999999,53.2188,47.0702,65.5705,294.5444,9.1809e-05,1.173e-05,0.0,0 STARLINK-3155,1 49739U 21115R   22271.56180260  .00001173  00000-0  91809-4 0  9997,2 49739  53.2188  47.0702 0001507  65.5705 294.5444 15.08830815 45451,6917.908,95.438,540.816,538.731,0.0
49739.0,STARLINK-3155,PAYLOAD,2022-09-28 19:50:32,15.08841754,0.0001524,53.2195,45.8815,54.8942,305.2193,7.0554e-05,8.35e-06,0.0,0 STARLINK-3155,1 49739U 21115R   22271.82676247  .00000835  00000-0  70554-4 0  9999,2 49739  53.2195  45.8815 0001524  54.8942 305.2193 15.08841754 45492,6917.875,95.437,540.794,538.686,0.0
49739.0,STARLINK-3155,PAYLOAD,2022-09-29 11:44:23,15.08835583,0.0001615,53.2193,42.9078,52.394,307.7198,7.7886e-05,9.52e-06,0.0,0 STARLINK-3155,1 49739U 21115R   22272.48916643  .00000952  00000-0  77886-4 0  9994,2 49739  53.2193  42.9078 0001615  52.3940 307.7198 15.08835583 46701,6917.894,95.438,540.876,538.6419999999998,0.0
49739.0,STARLINK-3155,PAYLOAD,2022-09-29 13:19:46,15.0884157,0.0001592,53.2197,42.6108,39.2269,320.8838,3.4743e-05,2.65e-06,0.0,0 STARLINK-3155,1 49739U 21115R   22272.55540435  .00000265  00000-0  34743-4 0  9996,2 49739  53.2197  42.6108 0001592  39.2269 320.8838 15.08841570 45606,6917.876,95.437,540.842,538.639,0.0
49739.0,STARLINK-3155,PAYLOAD,2022-09-29 19:41:19,15.08842994,0.0001653,53.2197,41.4214,50.9794,309.1345,0.00012927,1.77e-05,0.0,0 STARLINK-3155,1 49739U 21115R   22272.82036087  .00001770  00000-0  12927-3 0  9990,2 49739  53.2197  41.4214 0001653  50.9794 309.1345 15.08842994 46753,6917.871,95.437,540.88,538.5930000000002,0.0
49739.0,STARLINK-3155,PAYLOAD,2022-09-30 03:38:14,15.08851364,0.0001674,53.2198,39.9346,72.611,287.5066,0.00013876,1.922e-05,0.0,0 STARLINK-3155,1 49739U 21115R   22273.15155445  .00001922  00000-0  13876-3 0  9990,2 49739  53.2198  39.9346 0001674  72.6110 287.5066 15.08851364 46804,6917.846,95.437,540.869,538.553,0.0
49739.0,STARLINK-3155,PAYLOAD,2022-09-30 11:35:10,15.08843868,0.0001534,53.2194,38.4471,61.3072,298.8074,0.00012355,1.679e-05,0.0,0 STARLINK-3155,1 49739U 21115R   22273.48275899  .00001679  00000-0  12355-3 0  9992,2 49739  53.2194  38.4471 0001534  61.3072 298.8074 15.08843868 45746,6917.869000000002,95.437,540.795,538.672,0.0
49739.0,STARLINK-3155,PAYLOAD,2022-09-30 14:45:56,15.08846527,0.0001554,53.2198,37.8531,54.7175,305.3962,0.0001447,2.016e-05,0.0,0 STARLINK-3155,1 49739U 21115R   22273.61523681  .00002016  00000-0  14470-3 0  9998,2 49739  53.2198  37.8531 0001554  54.7175 305.3962 15.08846527 46872,6917.86,95.437,540.8,538.65,0.0
49739.0,STARLINK-3155,PAYLOAD,2022-09-30 19:32:05,15.08856373,0.0001595999999999,53.2198,36.9611,54.9575,305.1567,0.00019144,2.761e-05,0.0,0 STARLINK-3155,1 49739U 21115R   22273.81394853  .00002761  00000-0  19144-3 0  9997,2 49739  53.2198  36.9611 0001596  54.9575 305.1567 15.08856373 45792,6917.83,95.437,540.799,538.591,0.0
